start=new Date('2021-09-29T00:00:00.000Z').valueOf();
sats=[{"LAUNCH_DATE":"2020-10-24","EPOCH":"2021-09-28T17:00:53.286912","CLASSIFICATION_TYPE":"U","ECCENTRICITY":"0.00013980","REV_AT_EPOCH":"5206","MEAN_MOTION_DOT":"-0.00002327","PERIOD":"95.593","CENTER_NAME":"EARTH","RCS_SIZE":"LARGE","GP_ID":"185725687","APOAPSIS":"548.232","OBJECT_TYPE":"PAYLOAD","SITE":"AFETR","TIME_SYSTEM":"UTC","FILE":"3133018","BSTAR":"-0.00013746000000","OBJECT_ID":"2020-074N","ELEMENT_SET_NO":"999","COUNTRY_CODE":"US","MEAN_MOTION":"15.06383647","OBJECT_NAME":"STARLINK-1920","MEAN_MOTION_DDOT":"0.0000000000000","SEMIMAJOR_AXIS":"6925.399","EPHEMERIS_TYPE":"0","MEAN_ANOMALY":"263.6241","ARG_OF_PERICENTER":"96.4908","REF_FRAME":"TEME","RA_OF_ASC_NODE":"47.4683","NORAD_CAT_ID":"46751","PERIAPSIS":"546.296","TLE_LINE1":"1 46751U 20074N   21271.70895008 -.00002327  00000-0 -13746-3 0  9996","DECAY_DATE":null,"MEAN_ELEMENT_THEORY":"SGP4","TLE_LINE2":"2 46751  53.0551  47.4683 0001398  96.4908 263.6241 15.06383647 52063","INCLINATION":"53.0551"},{"TLE_LINE2":"2 46752  53.0566  48.3174 0001073 170.9544 189.1465 15.06407107 52023","MEAN_ELEMENT_THEORY":"SGP4","DECAY_DATE":null,"TLE_LINE1":"1 46752U 20074P   21271.52094372 -.00000121  00000-0  10728-4 0  9999","INCLINATION":"53.0566","NORAD_CAT_ID":"46752","PERIAPSIS":"546.449","RA_OF_ASC_NODE":"48.3174","REF_FRAME":"TEME","ARG_OF_PERICENTER":"170.9544","EPHEMERIS_TYPE":"0","SEMIMAJOR_AXIS":"6925.327","MEAN_MOTION_DDOT":"0.0000000000000","OBJECT_NAME":"STARLINK-1921","MEAN_ANOMALY":"189.1465","MEAN_MOTION":"15.06407107","COUNTRY_CODE":"US","OBJECT_ID":"2020-074P","ELEMENT_SET_NO":"999","OBJECT_TYPE":"PAYLOAD","FILE":"3132662","BSTAR":"0.00001072800000","TIME_SYSTEM":"UTC","SITE":"AFETR","GP_ID":"185715947","RCS_SIZE":"LARGE","CENTER_NAME":"EARTH","APOAPSIS":"547.935","ECCENTRICITY":"0.00010730","CLASSIFICATION_TYPE":"U","EPOCH":"2021-09-28T12:30:09.537408","LAUNCH_DATE":"2020-10-24","PERIOD":"95.592","MEAN_MOTION_DOT":"-0.00000121","REV_AT_EPOCH":"5202"},{"BSTAR":"0.00004539600000","FILE":"3132662","TIME_SYSTEM":"UTC","SITE":"AFETR","OBJECT_TYPE":"PAYLOAD","MEAN_MOTION":"15.06400406","COUNTRY_CODE":"US","OBJECT_ID":"2020-074Q","ELEMENT_SET_NO":"999","PERIOD":"95.592","MEAN_MOTION_DOT":"0.00000395","REV_AT_EPOCH":"5203","ECCENTRICITY":"0.00016740","EPOCH":"2021-09-28T13:17:56.090688","CLASSIFICATION_TYPE":"U","LAUNCH_DATE":"2020-10-24","APOAPSIS":"548.372","GP_ID":"185716197","RCS_SIZE":"LARGE","CENTER_NAME":"EARTH","PERIAPSIS":"546.053","NORAD_CAT_ID":"46753","INCLINATION":"53.0553","TLE_LINE2":"2 46753  53.0553  48.1527 0001674 107.5780 252.5392 15.06400406 52035","MEAN_ELEMENT_THEORY":"SGP4","DECAY_DATE":null,"TLE_LINE1":"1 46753U 20074Q   21271.55412142  .00000395  00000-0  45396-4 0  9993","MEAN_ANOMALY":"252.5392","EPHEMERIS_TYPE":"0","SEMIMAJOR_AXIS":"6925.347","MEAN_MOTION_DDOT":"0.0000000000000","OBJECT_NAME":"STARLINK-1922","REF_FRAME":"TEME","RA_OF_ASC_NODE":"48.1527","ARG_OF_PERICENTER":"107.5780"},{"ARG_OF_PERICENTER":"95.3742","REF_FRAME":"TEME","RA_OF_ASC_NODE":"47.5319","SEMIMAJOR_AXIS":"6925.374","MEAN_MOTION_DDOT":"0.0000000000000","OBJECT_NAME":"STARLINK-1923","EPHEMERIS_TYPE":"0","MEAN_ANOMALY":"264.7414","DECAY_DATE":null,"TLE_LINE1":"1 46754U 20074R   21271.69419097 -.00000232  00000-0  33179-5 0  9993","TLE_LINE2":"2 46754  53.0547  47.5319 0001463  95.3742 264.7414 15.06391659 52061","MEAN_ELEMENT_THEORY":"SGP4","INCLINATION":"53.0547","NORAD_CAT_ID":"46754","PERIAPSIS":"546.226","CENTER_NAME":"EARTH","GP_ID":"185725795","RCS_SIZE":"LARGE","APOAPSIS":"548.252","EPOCH":"2021-09-28T16:39:38.099808","CLASSIFICATION_TYPE":"U","LAUNCH_DATE":"2020-10-24","ECCENTRICITY":"0.00014630","PERIOD":"95.593","MEAN_MOTION_DOT":"-0.00000232","REV_AT_EPOCH":"5206","ELEMENT_SET_NO":"999","OBJECT_ID":"2020-074R","COUNTRY_CODE":"US","MEAN_MOTION":"15.06391659","OBJECT_TYPE":"PAYLOAD","SITE":"AFETR","FILE":"3133031","BSTAR":"0.00000331790000","TIME_SYSTEM":"UTC"},{"PERIOD":"95.591","MEAN_MOTION_DOT":"0.00002715","REV_AT_EPOCH":"5196","EPOCH":"2021-09-28T13:35:48.066720","CLASSIFICATION_TYPE":"U","LAUNCH_DATE":"2020-10-24","ECCENTRICITY":"0.00013600","APOAPSIS":"548.082","CENTER_NAME":"EARTH","GP_ID":"185716698","RCS_SIZE":"LARGE","SITE":"AFETR","BSTAR":"0.00020095000000","FILE":"3132662","TIME_SYSTEM":"UTC","OBJECT_TYPE":"PAYLOAD","ELEMENT_SET_NO":"999","OBJECT_ID":"2020-074S","COUNTRY_CODE":"US","MEAN_MOTION":"15.06423859","MEAN_ANOMALY":"251.5096","SEMIMAJOR_AXIS":"6925.275","OBJECT_NAME":"STARLINK-1924","MEAN_MOTION_DDOT":"0.0000000000000","EPHEMERIS_TYPE":"0","ARG_OF_PERICENTER":"108.6041","RA_OF_ASC_NODE":"53.1080","REF_FRAME":"TEME","PERIAPSIS":"546.199","NORAD_CAT_ID":"46755","INCLINATION":"53.0566","DECAY_DATE":null,"TLE_LINE1":"1 46755U 20074S   21271.56652855  .00002715  00000-0  20095-3 0  9999","TLE_LINE2":"2 46755  53.0566  53.1080 0001360 108.6041 251.5096 15.06423859 51963","MEAN_ELEMENT_THEORY":"SGP4"},{"ECCENTRICITY":"0.00014610","CLASSIFICATION_TYPE":"U","EPOCH":"2021-09-28T16:34:57.196128","LAUNCH_DATE":"2020-10-24","PERIOD":"95.592","MEAN_MOTION_DOT":"0.00000220","REV_AT_EPOCH":"5200","GP_ID":"185726398","RCS_SIZE":"LARGE","CENTER_NAME":"EARTH","APOAPSIS":"548.232","OBJECT_TYPE":"PAYLOAD","FILE":"3133071","BSTAR":"0.00003366800000","TIME_SYSTEM":"UTC","SITE":"AFETR","MEAN_MOTION":"15.06397839","COUNTRY_CODE":"US","ELEMENT_SET_NO":"999","OBJECT_ID":"2020-074T","EPHEMERIS_TYPE":"0","SEMIMAJOR_AXIS":"6925.355","OBJECT_NAME":"STARLINK-1925","MEAN_MOTION_DDOT":"0.0000000000000","MEAN_ANOMALY":"253.7716","RA_OF_ASC_NODE":"52.5343","REF_FRAME":"TEME","ARG_OF_PERICENTER":"106.3434","NORAD_CAT_ID":"46756","PERIAPSIS":"546.208","TLE_LINE2":"2 46756  53.0549  52.5343 0001461 106.3434 253.7716 15.06397839 52000","MEAN_ELEMENT_THEORY":"SGP4","DECAY_DATE":null,"TLE_LINE1":"1 46756U 20074T   21271.69093977  .00000220  00000-0  33668-4 0  9998","INCLINATION":"53.0549"},{"OBJECT_TYPE":"PAYLOAD","TIME_SYSTEM":"UTC","FILE":"3133071","BSTAR":"0.00002366500000","SITE":"AFETR","COUNTRY_CODE":"US","MEAN_MOTION":"15.06393207","OBJECT_ID":"2020-074U","ELEMENT_SET_NO":"999","ECCENTRICITY":"0.00014510","LAUNCH_DATE":"2020-10-24","CLASSIFICATION_TYPE":"U","EPOCH":"2021-09-28T17:17:25.296288","REV_AT_EPOCH":"5199","MEAN_MOTION_DOT":"0.00000071","PERIOD":"95.593","RCS_SIZE":"LARGE","GP_ID":"185726895","CENTER_NAME":"EARTH","APOAPSIS":"548.239","NORAD_CAT_ID":"46757","PERIAPSIS":"546.230","MEAN_ELEMENT_THEORY":"SGP4","TLE_LINE2":"2 46757  53.0557  52.4196 0001451 104.0285 256.0865 15.06393207 51996","TLE_LINE1":"1 46757U 20074U   21271.72043167  .00000071  00000-0  23665-4 0  9999","DECAY_DATE":null,"INCLINATION":"53.0557","EPHEMERIS_TYPE":"0","OBJECT_NAME":"STARLINK-1926","MEAN_MOTION_DDOT":"0.0000000000000","SEMIMAJOR_AXIS":"6925.369","MEAN_ANOMALY":"256.0865","RA_OF_ASC_NODE":"52.4196","REF_FRAME":"TEME","ARG_OF_PERICENTER":"104.0285"},{"INCLINATION":"53.0559","DECAY_DATE":null,"TLE_LINE1":"1 46758U 20074V   21271.54813424  .00000631  00000-0  61284-4 0  9992","TLE_LINE2":"2 46758  53.0559  53.1905 0001535  98.1333 261.9830 15.06392610 51966","MEAN_ELEMENT_THEORY":"SGP4","PERIAPSIS":"546.173","NORAD_CAT_ID":"46758","ARG_OF_PERICENTER":"98.1333","RA_OF_ASC_NODE":"53.1905","REF_FRAME":"TEME","MEAN_ANOMALY":"261.9830","SEMIMAJOR_AXIS":"6925.371","MEAN_MOTION_DDOT":"0.0000000000000","OBJECT_NAME":"STARLINK-1928","EPHEMERIS_TYPE":"0","ELEMENT_SET_NO":"999","OBJECT_ID":"2020-074V","MEAN_MOTION":"15.06392610","COUNTRY_CODE":"US","SITE":"AFETR","BSTAR":"0.00006128400000","FILE":"3132662","TIME_SYSTEM":"UTC","OBJECT_TYPE":"PAYLOAD","APOAPSIS":"548.299","CENTER_NAME":"EARTH","GP_ID":"185716446","RCS_SIZE":"LARGE","PERIOD":"95.593","MEAN_MOTION_DOT":"0.00000631","REV_AT_EPOCH":"5196","EPOCH":"2021-09-28T13:09:18.798336","CLASSIFICATION_TYPE":"U","LAUNCH_DATE":"2020-10-24","ECCENTRICITY":"0.00015350"},{"APOAPSIS":"548.325","GP_ID":"185723009","RCS_SIZE":"LARGE","CENTER_NAME":"EARTH","MEAN_MOTION_DOT":"-0.00000479","PERIOD":"95.592","REV_AT_EPOCH":"5158","ECCENTRICITY":"0.00015870","EPOCH":"2021-09-28T17:49:18.019488","CLASSIFICATION_TYPE":"U","LAUNCH_DATE":"2020-10-24","MEAN_MOTION":"15.06396021","COUNTRY_CODE":"US","OBJECT_ID":"2020-074W","ELEMENT_SET_NO":"999","BSTAR":"-0.00001326100000","FILE":"3132917","TIME_SYSTEM":"UTC","SITE":"AFETR","OBJECT_TYPE":"PAYLOAD","RA_OF_ASC_NODE":"62.2983","REF_FRAME":"TEME","ARG_OF_PERICENTER":"112.4364","MEAN_ANOMALY":"247.6793","EPHEMERIS_TYPE":"0","SEMIMAJOR_AXIS":"6925.361","OBJECT_NAME":"STARLINK-1833","MEAN_MOTION_DDOT":"0.0000000000000","INCLINATION":"53.0554","TLE_LINE2":"2 46759  53.0554  62.2983 0001587 112.4364 247.6793 15.06396021 51587","MEAN_ELEMENT_THEORY":"SGP4","DECAY_DATE":null,"TLE_LINE1":"1 46759U 20074W   21271.74256967 -.00000479  00000-0 -13261-4 0  9992","PERIAPSIS":"546.127","NORAD_CAT_ID":"46759"},{"OBJECT_TYPE":"PAYLOAD","FILE":"3133156","BSTAR":"0.00015902000000","TIME_SYSTEM":"UTC","SITE":"AFETR","COUNTRY_CODE":"US","MEAN_MOTION":"15.06402584","OBJECT_ID":"2020-074X","ELEMENT_SET_NO":"999","ECCENTRICITY":"0.00016740","EPOCH":"2021-09-28T16:29:40.733664","CLASSIFICATION_TYPE":"U","LAUNCH_DATE":"2020-10-24","PERIOD":"95.592","MEAN_MOTION_DOT":"0.00002088","REV_AT_EPOCH":"5186","GP_ID":"185728444","RCS_SIZE":"LARGE","CENTER_NAME":"EARTH","APOAPSIS":"548.365","NORAD_CAT_ID":"46760","PERIAPSIS":"546.046","TLE_LINE2":"2 46760  53.0556  62.5701 0001674 105.9460 254.1713 15.06402584 51861","MEAN_ELEMENT_THEORY":"SGP4","DECAY_DATE":null,"TLE_LINE1":"1 46760U 20074X   21271.68727701  .00002088  00000-0  15902-3 0  9995","INCLINATION":"53.0556","EPHEMERIS_TYPE":"0","SEMIMAJOR_AXIS":"6925.341","MEAN_MOTION_DDOT":"0.0000000000000","OBJECT_NAME":"STARLINK-1896","MEAN_ANOMALY":"254.1713","RA_OF_ASC_NODE":"62.5701","REF_FRAME":"TEME","ARG_OF_PERICENTER":"105.9460"}];
